1988IAUC.4683....1S|1988|1988 VP4|Shoemaker, C. S., Shoemaker, E. M., Holt, H. E., Rodriquez, T., Bardwell, C. M.|International Astronomical Union Circular|4683||1|C. S. Shoemaker has discovered another fast-moving asteroidal object on films taken with the 0.46-m Palomar Schmidt telescope by E. M. Shoemaker, H. E. Holt and herself. The following measurements are by C. S. Shoemaker and T. Rodriquez: 1988 UT R.A. (1950) Decl. Mag. Oct. 11.30243 0 46 18.30 +31 28 09.7 18.2 11.33438 0 46 14.44 +31 28 03.6 Nov. 4.18576 23 58 08.01 +27 26 57.1 17.8 4.21267 23 58 05.01 +27 26 29.8 6.24063 23 54 26.07 +26 52 36.0 6.26875 23 54 23.14 +26 52 08.2 Orbital elements by C. M. Bardwell, Center for Astrophysics, show that the object is of Apollo type. The object is intrinsically rather bright and will be well placed for observation in the southern hemisphere next March and April, with a passage some 0.23 AU from the earth. T = 1989 Feb. 20.156 ET Peri. = 215.509 e = 0.65251 Node = 282.215 1950.0 q = 0.78555 AU Incl. = 11.660 a = 2.26061 AU n = 0.289978 P = 3.40 years 1988/89 R.A. (1950) Decl. Delta r V Nov. 25 23 31.10 +21 02.8 0.695 1.445 16.8 30 23 28.50 +19 30.6 Dec. 5 23 27.44 +18 02.8 0.681 1.347 16.8 10 23 27.87 +16 40.5 15 23 29.72 +15 24.1 0.667 1.248 16.8 20 23 32.89 +14 13.4 25 23 37.25 +13 07.4 0.645 1.151 16.8 30 23 42.71 +12 04.7 Jan. 4 23 49.17 +11 03.5 0.613 1.056 16.7 9 23 56.53 +10 01.4 14 0 04.64 + 8 55.4 0.568 0.968 16.6 19 0 13.35 + 7 41.0 24 0 22.43 + 6 13.1 0.508 0.890 16.5|
